     2              NAVIGATION DATA                         RINEX VERSION / TYPE
CCRINEXN V1.6.0 UX  CDDIS               02-JUN-17 17:31     PGM / RUN BY / DATE 
IGS BROADCAST EPHEMERIS FILE                                COMMENT             
    0.6519D-08  0.2235D-07 -0.5960D-07 -0.1192D-06          ION ALPHA           
    0.8602D+05  0.9830D+05 -0.6554D+05 -0.5243D+06          ION BETA            
   -0.279396772385D-08-0.177635683940D-14   503808     1951 DELTA-UTC: A0,A1,T,W
    18                                                      LEAP SECONDS        
                                                            END OF HEADER       
 2 17  6  1  8  0  0.0 0.407813582569D-03-0.795807864051D-11 0.000000000000D+00
    0.700000000000D+01-0.595625000000D+02 0.508378318855D-08 0.812690472803D+00
   -0.325776636601D-05 0.168005335145D-01 0.547617673874D-05 0.515379470062D+04
    0.374400000000D+06-0.212341547012D-06-0.257127038017D+01-0.558793544769D-08
    0.946558481126D+00 0.267500000000D+03-0.197559888170D+01-0.867500420589D-08
   -0.821462788651D-10 0.100000000000D+01 0.195100000000D+04 0.000000000000D+00
    0.200000000000D+01 0.000000000000D+00-0.204890966415D-07 0.700000000000D+01
    0.367218000000D+06 0.400000000000D+01 0.000000000000D+00 0.000000000000D+00
 3 17  6  1  8  0  0.0-0.974498689175D-04 0.216004991671D-11 0.000000000000D+00
    0.890000000000D+02-0.331562500000D+02 0.462590676875D-08-0.134187614961D+00
   -0.163726508617D-05 0.698191113770D-03 0.111404806375D-04 0.515373050118D+04
    0.374400000000D+06 0.167638063431D-07-0.147531955035D+01 0.931322574616D-08
    0.959491746340D+00 0.165843750000D+03 0.661241195464D-01-0.796890375909D-08
    0.152149196020D-09 0.100000000000D+01 0.195100000000D+04 0.000000000000D+00
    0.200000000000D+01 0.000000000000D+00 0.232830643654D-08 0.890000000000D+02
    0.367200000000D+06 0.000000000000D+00 0.000000000000D+00 0.000000000000D+00
 4 17  6  1  8  0  0.0-0.187237747014D-04 0.227373675443D-12 0.000000000000D+00
    0.310000000000D+02 0.101250000000D+02 0.406338354195D-08 0.138436475756D+01
    0.629574060440D-06 0.164324039360D-01 0.802613794804D-05 0.515363829613D+04
    0.374400000000D+06-0.210478901863D-06 0.763533452690D+00 0.208616256714D-06
    0.986208419425D+00 0.244531250000D+03-0.243191745163D+01-0.799640451092D-08
   -0.603596570791D-09 0.100000000000D+01 0.195100000000D+04 0.000000000000D+00
    0.200000000000D+01 0.630000000000D+02-0.512227416039D-08 0.310000000000D+02
    0.369438000000D+06 0.400000000000D+01 0.000000000000D+00 0.000000000000D+00
 5 17  6  1  8  0  0.0-0.434108078480D-04 0.170530256582D-11 0.000000000000D+00
    0.340000000000D+02-0.337812500000D+02 0.489770400903D-08-0.282954378624D+01
   -0.184960663319D-05 0.498826382682D-02 0.102445483208D-04 0.515375767899D+04
    0.374400000000D+06-0.353902578354D-07-0.149223091407D+01-0.102445483208D-06
    0.946451745160D+00 0.177718750000D+03 0.535484431522D+00-0.802069123684D-08
    0.145363197818D-09 0.100000000000D+01 0.195100000000D+04 0.000000000000D+00
    0.200000000000D+01 0.000000000000D+00-0.107102096081D-07 0.340000000000D+02
    0.367218000000D+06 0.400000000000D+01 0.000000000000D+00 0.000000000000D+00
 6 17  6  1  8  0  0.0 0.358505174518D-03 0.500222085975D-11 0.000000000000D+00
    0.680000000000D+02-0.680000000000D+02 0.447054335893D-08 0.576135791374D+00
   -0.344216823578D-05 0.785517855547D-03 0.550970435142D-05 0.515368104553D+04
    0.374400000000D+06 0.353902578354D-07-0.252617128122D+01-0.204890966415D-07
    0.967381458109D+00 0.271718750000D+03-0.107894871397D+01-0.817284043161D-08
    0.285726187357D-10 0.100000000000D+01 0.195100000000D+04 0.000000000000D+00
    0.200000000000D+01 0.000000000000D+00 0.465661287308D-08 0.680000000000D+02
    0.367218000000D+06 0.400000000000D+01 0.000000000000D+00 0.000000000000D+00
 7 17  6  1  8  0  0.0 0.344932544977D-03-0.443378667114D-11 0.000000000000D+00
    0.138000000000D+03 0.303125000000D+01 0.477234163299D-08-0.121970914818D+00
    0.484287738800D-07 0.105853093555D-01 0.623427331448D-05 0.515373405838D+04
    0.374400000000D+06 0.633299350738D-07 0.639184105178D+00 0.104308128357D-06
    0.962493562074D+00 0.257000000000D+03-0.260071537645D+01-0.838534930381D-08
   -0.484663031930D-09 0.100000000000D+01 0.195100000000D+04 0.000000000000D+00
    0.200000000000D+01 0.000000000000D+00-0.111758708954D-07 0.138000000000D+03
    0.367200000000D+06 0.000000000000D+00 0.000000000000D+00 0.000000000000D+00
 8 17  6  1  8  0  0.0-0.616549514234D-04-0.125055521494D-11 0.000000000000D+00
    0.800000000000D+02 0.280937500000D+02 0.441054085959D-08-0.311240556684D+01
    0.146217644215D-05 0.257245195098D-02 0.527314841747D-05 0.515364049912D+04
    0.374400000000D+06 0.465661287308D-07 0.270279849345D+01-0.149011611938D-07
    0.966977464504D+00 0.280187500000D+03-0.665873516785D+00-0.819676999980D-08
    0.279297348141D-09 0.100000000000D+01 0.195100000000D+04 0.000000000000D+00
    0.200000000000D+01 0.000000000000D+00 0.512227416039D-08 0.800000000000D+02
    0.367200000000D+06 0.400000000000D+01 0.000000000000D+00 0.000000000000D+00
 9 17  6  1  8  0  0.0 0.375353731215D-03 0.807176547823D-11 0.000000000000D+00
    0.550000000000D+02 0.428750000000D+02 0.502485208997D-08 0.266659210485D+01
    0.238604843616D-05 0.717320828699D-03 0.758096575737D-05 0.515362079620D+04
    0.374400000000D+06 0.104308128357D-06-0.438982175838D+00-0.577419996262D-07
    0.953642793587D+00 0.228062500000D+03 0.194813442634D+01-0.826820123479D-08
    0.161078136940D-09 0.100000000000D+01 0.195100000000D+04 0.000000000000D+00
    0.200000000000D+01 0.000000000000D+00 0.139698386192D-08 0.550000000000D+02
    0.367200000000D+06 0.000000000000D+00 0.000000000000D+00 0.000000000000D+00
10 17  6  1  8  0  0.0-0.381735153496D-04 0.108002495835D-10 0.000000000000D+00
    0.550000000000D+02-0.215000000000D+02 0.456840457810D-08-0.169318620965D+01
   -0.126659870148D-05 0.253353489097D-02 0.103171914816D-04 0.515367412376D+04
    0.374400000000D+06 0.279396772385D-07-0.147903374282D+01-0.745058059692D-08
    0.959656601115D+00 0.178812500000D+03-0.276663255518D+01-0.795390274055D-08
    0.184293390845D-09 0.100000000000D+01 0.195100000000D+04 0.000000000000D+00
    0.200000000000D+01 0.000000000000D+00 0.186264514923D-08 0.550000000000D+02
    0.367200000000D+06 0.400000000000D+01 0.000000000000D+00 0.000000000000D+00
11 17  6  1  8  0  0.0-0.692160800099D-03-0.272848410532D-11 0.000000000000D+00
    0.860000000000D+02-0.354062500000D+02 0.618132890573D-08-0.108172614441D+00
   -0.195018947125D-05 0.167852558661D-01 0.412575900555D-05 0.515370888519D+04
    0.374400000000D+06-0.325962901115D-06-0.292040497861D+01 0.372529029846D-08
    0.901202205569D+00 0.270625000000D+03 0.164475869119D+01-0.933860327602D-08
    0.145720355552D-09 0.100000000000D+01 0.195100000000D+04 0.000000000000D+00
    0.200000000000D+01 0.000000000000D+00-0.121071934700D-07 0.860000000000D+02
    0.371310000000D+06 0.400000000000D+01 0.000000000000D+00 0.000000000000D+00
13 17  6  1  8  0  0.0-0.838334672153D-04-0.136424205266D-11 0.000000000000D+00
    0.400000000000D+02 0.426250000000D+02 0.467376610969D-08 0.940386093278D+00
    0.218115746975D-05 0.369487516582D-02 0.706687569618D-05 0.515368533897D+04
    0.374400000000D+06-0.109896063805D-06-0.312738769271D+00-0.614672899246D-07
    0.969775814667D+00 0.248062500000D+03 0.183537457771D+01-0.808569394446D-08
    0.133576992589D-09 0.100000000000D+01 0.195100000000D+04 0.000000000000D+00
    0.200000000000D+01 0.000000000000D+00-0.111758708954D-07 0.400000000000D+02
    0.367200000000D+06 0.400000000000D+01 0.000000000000D+00 0.000000000000D+00
14 17  6  1  8  0  0.0-0.727940350771D-04-0.136424205266D-11 0.000000000000D+00
    0.380000000000D+02 0.392187500000D+02 0.474376902559D-08 0.231577932285D+01
    0.188313424587D-05 0.915323523804D-02 0.703148543835D-05 0.515365237618D+04
    0.374400000000D+06 0.521540641785D-07-0.352205779905D+00-0.154599547386D-06
    0.962272962806D+00 0.243031250000D+03-0.195925337177D+01-0.800176187693D-08
    0.539308178636D-10 0.100000000000D+01 0.195100000000D+04 0.000000000000D+00
    0.200000000000D+01 0.000000000000D+00-0.931322574616D-08 0.380000000000D+02
    0.367218000000D+06 0.400000000000D+01 0.000000000000D+00 0.000000000000D+00
15 17  6  1  8  0  0.0-0.350940041244D-03-0.682121026330D-12 0.000000000000D+00
    0.100000000000D+03 0.392500000000D+02 0.560309053407D-08 0.174246759682D+01
    0.216625630856D-05 0.915551569778D-02 0.774115324020D-05 0.515380493927D+04
    0.374400000000D+06-0.251457095146D-06-0.500667949687D+00 0.169500708580D-06
    0.929216867350D+00 0.216656250000D+03 0.581940754180D+00-0.858535761461D-08
    0.120719314158D-09 0.100000000000D+01 0.195100000000D+04 0.000000000000D+00
    0.200000000000D+01 0.000000000000D+00-0.107102096081D-07 0.100000000000D+03
    0.367200000000D+06 0.400000000000D+01 0.000000000000D+00 0.000000000000D+00
16 17  6  1  8  0  0.0 0.342121347785D-04 0.568434188608D-12 0.000000000000D+00
    0.320000000000D+02 0.438125000000D+02 0.354800493150D-08-0.271689108613D+01
    0.217556953430D-05 0.934606604278D-02 0.938400626183D-05 0.515371206665D+04
    0.374400000000D+06-0.186264514923D-07 0.174271405462D+01-0.800937414169D-07
    0.989479858276D+00 0.213906250000D+03 0.453895723036D+00-0.758888753620D-08
   -0.367872466222D-10 0.100000000000D+01 0.195100000000D+04 0.000000000000D+00
    0.200000000000D+01 0.000000000000D+00-0.107102096081D-07 0.320000000000D+02
    0.367200000000D+06 0.400000000000D+01 0.000000000000D+00 0.000000000000D+00
